NORAD_CAT_ID,OBJECT_NAME,OBJECT_TYPE,EPOCH,MEAN_MOTION,ECCENTRICITY,INCLINATION,RA_OF_ASC_NODE,ARG_OF_PERICENTER,MEAN_ANOMALY,BSTAR,MEAN_MOTION_DOT,MEAN_MOTION_DDOT,TLE_LINE0,TLE_LINE1,TLE_LINE2,SEMIMAJOR_AXIS,PERIOD,APOGEE,PERIGEE,DECAYED
55676.0,STARLINK-5300,PAYLOAD,2023-11-20 14:05:26,14.99301335,0.0003039,70.0,102.8412,267.6452,92.4359,-3.7389e-07,-9.8e-07,0.0,0 STARLINK-5300,1 55676U 23021BA  23324.58711364 -.00000098  00000-0 -37389-6 0  9991,2 55676  70.0000 102.8412 0003039 267.6452  92.4359 14.99301335 43932,6947.191,96.045,571.167,566.944,0.0
55676.0,STARLINK-5300,PAYLOAD,2023-11-20 18:53:39,14.99303859,0.0003142,70.0,102.3362,270.1736,89.9064,2.6759e-05,2.34e-06,0.0,0 STARLINK-5300,1 55676U 23021BA  23324.78726146  .00000234  00000-0  26759-4 0  9994,2 55676  70.0000 102.3362 0003142 270.1736  89.9064 14.99303859 43667,6947.183,96.045,571.231,566.865,0.0
55676.0,STARLINK-5300,PAYLOAD,2023-11-21 12:30:27,14.99296615,0.0002966,70.0005,100.4822,264.5789,95.5032,6.0331e-05,6.44e-06,0.0,0 STARLINK-5300,1 55676U 23021BA  23325.52114857  .00000644  00000-0  60331-4 0  9996,2 55676  70.0005 100.4822 0002966 264.5789  95.5032 14.99296615 44075,6947.205,96.045,571.131,567.01,0.0
55676.0,STARLINK-5300,PAYLOAD,2023-11-21 18:54:44,14.99303097,0.0003065,70.0,99.8084,269.1883,90.8925,9.2832e-05,1.042e-05,0.0,0 STARLINK-5300,1 55676U 23021BA  23325.78801091  .00001042  00000-0  92832-4 0  9991,2 55676  70.0000  99.8084 0003065 269.1883  90.8925 14.99303097 44115,6947.185,96.045,571.18,566.921,0.0
55676.0,STARLINK-5300,PAYLOAD,2023-11-22 02:55:22,14.99110102,0.0003778,70.0001,98.9675,280.3732,79.7002,-0.0019669,-0.00023962,0.0,0 STARLINK-5300,1 55676U 23021BA  23326.12178991 -.00023962  00000-0 -19669-2 0  9998,2 55676  70.0001  98.9675 0003778 280.3732  79.7002 14.99110102 43867,6947.782,96.057,572.271,567.022,0.0
55676.0,STARLINK-5300,PAYLOAD,2023-11-22 10:56:12,14.98822206,0.0003057,70.0,98.1259,260.573,99.5084,-0.0047871,-0.00057474,0.0,0 STARLINK-5300,1 55676U 23021BA  23326.45569784 -.00057474  00000-0 -47871-2 0  9999,2 55676  70.0000  98.1259 0003057 260.5730  99.5084 14.98822206 43914,6948.671,96.075,572.66,568.412,0.0
55676.0,STARLINK-5300,PAYLOAD,2023-11-22 14:08:29,14.98759799,0.0003183,69.9997,97.7885,272.0384,88.0411,-0.0053218,-0.00063724,0.0,0 STARLINK-5300,1 55676U 23021BA  23326.58922502 -.00063724  00000-0 -53218-2 0  9991,2 55676  69.9997  97.7885 0003183 272.0384  88.0411 14.98759799 43934,6948.864,96.079,572.941,568.517,0.0
55676.0,STARLINK-5300,PAYLOAD,2023-11-23 02:57:22,14.98701785,0.0003144,70.0004,96.4416,272.4712,87.6087,-0.0052183,-0.00062404,0.0,0 STARLINK-5300,1 55676U 23021BA  23327.12318133 -.00062404  00000-0 -52183-2 0  9995,2 55676  70.0004  96.4416 0003144 272.4712  87.6087 14.98701785 44014,6949.043,96.083,573.093,568.724,0.0
55676.0,STARLINK-5300,PAYLOAD,2023-11-23 10:57:57,14.98666608,0.0003021,69.9998,95.5999,268.8953,91.186,-0.0050067,-0.00059844,0.0,0 STARLINK-5300,1 55676U 23021BA  23327.45691533 -.00059844  00000-0 -50067-2 0  9992,2 55676  69.9998  95.5999 0003021 268.8953  91.1860 14.98666608 44067,6949.152,96.085,573.116,568.918,0.0
55676.0,STARLINK-5300,PAYLOAD,2023-11-23 14:10:11,14.98652292,0.0003057,70.0007,95.264,265.7436,94.3374,-0.0049279,-0.0005889,0.0,0 STARLINK-5300,1 55676U 23021BA  23327.59041264 -.00058890  00000-0 -49279-2 0  9990,2 55676  70.0007  95.2640 0003057 265.7436  94.3374 14.98652292 44386,6949.196,96.086,573.186,568.937,0.0
55676.0,STARLINK-5300,PAYLOAD,2023-11-23 18:58:33,14.98634268,0.0002926,70.001,94.7596,263.0263,97.0563,-0.0047687,-0.00056979,0.0,0 STARLINK-5300,1 55676U 23021BA  23327.79065984 -.00056979  00000-0 -47687-2 0  9994,2 55676  70.0010  94.7596 0002926 263.0263  97.0563 14.98634268 44111,6949.252,96.087,573.15,569.084,0.0
55676.0,STARLINK-5300,PAYLOAD,2023-11-24 10:59:51,14.98357398,0.0002919,70.0007,93.0761,262.5733,97.5095,-0.0004311,-5.237e-05,0.0,0 STARLINK-5300,1 55676U 23021BA  23328.45823563 -.00005237  00000-0 -43110-3 0  9992,2 55676  70.0007  93.0761 0002919 262.5733  97.5095 14.98357398 44213,6950.108,96.105,574.002,569.944,0.0
55676.0,STARLINK-5300,PAYLOAD,2023-11-24 14:12:07,14.9834751,0.0002794,70.0011,92.7399,267.1261,92.9579,-0.00028163,-3.453e-05,0.0,0 STARLINK-5300,1 55676U 23021BA  23328.59175763 -.00003453  00000-0 -28163-3 0  9998,2 55676  70.0011  92.7399 0002794 267.1261  92.9579 14.98347510 44535,6950.139,96.106,573.946,570.062,0.0
55676.0,STARLINK-5300,PAYLOAD,2023-11-24 22:00:00,14.98342504,0.0003004,70.0011,91.9191,272.4715,39.7327,-0.0030894,-0.00036774,0.0,0 STARLINK-5300,1 55676U 23021BA  23328.91667824 -.00036774  00000-0 -30894-2 0  9993,2 55676  70.0011  91.9191 0003004 272.4715  39.7327 14.98342504 44284,6950.154,96.106,574.107,569.931,0.0
55676.0,STARLINK-5300,PAYLOAD,2023-11-25 14:00:01,14.98371478,0.0003028,70.0017,90.2383,272.1511,35.0264,-0.0054055,-0.00064074,0.0,0 STARLINK-5300,1 55676U 23021BA  23329.58334491 -.00064074  00000-0 -54055-2 0  9997,2 55676  70.0017  90.2383 0003028 272.1511  35.0264 14.98371478  5785,6950.065,96.104,574.034,569.825,0.0
55676.0,STARLINK-5300,PAYLOAD,2023-11-26 00:00:00,14.98325292,0.0002982,70.0016,89.1877,275.7734,118.2796,-0.0024743,-0.00029488,0.0,0 STARLINK-5300,1 55676U 23021BA  23330.00001157 -.00029488  00000-0 -24743-2 0  9997,2 55676  70.0016  89.1877 0002982 275.7734 118.2796 14.98325292  5847,6950.207,96.107,574.145,570.0,0.0
55676.0,STARLINK-5300,PAYLOAD,2023-11-26 11:03:52,14.98342784,0.0002503,70.0012,88.027,258.1438,101.9441,0.00011344,1.261e-05,0.0,0 STARLINK-5300,1 55676U 23021BA  23330.46102119  .00001261  00000-0  11344-3 0  9998,2 55676  70.0012  88.0270 0002503 258.1438 101.9441 14.98342784 44511,6950.153,96.106,573.758,570.279,0.0
55676.0,STARLINK-5300,PAYLOAD,2023-11-26 14:16:08,14.9834185,0.0002541,70.0015,87.6903,262.0272,98.0599,9.004e-05,9.82e-06,0.0,0 STARLINK-5300,1 55676U 23021BA  23330.59454200  .00000982  00000-0  90040-4 0  9993,2 55676  70.0015  87.6903 0002541 262.0272  98.0599 14.98341850 44832,6950.156,96.106,573.787,570.255,0.0
55676.0,STARLINK-5300,PAYLOAD,2023-11-26 17:28:24,14.98342743,0.0002492,70.0012,87.3528,268.6345,91.4529,0.00010151,1.119e-05,0.0,0 STARLINK-5300,1 55676U 23021BA  23330.72806009  .00001119  00000-0  10151-3 0  9993,2 55676  70.0012  87.3528 0002492 268.6345  91.4529 14.98342743 44851,6950.153,96.106,573.75,570.287,0.0
55676.0,STARLINK-5300,PAYLOAD,2023-11-27 11:05:55,14.98317733,0.0002675,70.0018,85.5042,260.0947,99.991,-0.00023483,-2.893e-05,0.0,0 STARLINK-5300,1 55676U 23021BA  23331.46244595 -.00002893  00000-0 -23483-3 0  9995,2 55676  70.0018  85.5042 0002675 260.0947  99.9910 14.98317733 44662,6950.231,96.108,573.955,570.237,0.0
55676.0,STARLINK-5300,PAYLOAD,2023-11-27 14:18:11,14.98312522,0.0002367,70.0024,85.1672,238.1011,121.9918,-0.00026111,-3.205e-05,0.0,0 STARLINK-5300,1 55676U 23021BA  23331.59597058 -.00003205  00000-0 -26111-3 0  9993,2 55676  70.0024  85.1672 0002367 238.1011 121.9918 14.98312522 44980,6950.247,96.108,573.757,570.467,0.0
55676.0,STARLINK-5300,PAYLOAD,2023-11-27 17:30:27,14.98316183,0.0001985,70.0023,84.829,252.3772,107.717,-0.00020923,-2.587e-05,0.0,0 STARLINK-5300,1 55676U 23021BA  23331.72948997 -.00002587  00000-0 -20923-3 0  9997,2 55676  70.0023  84.8290 0001985 252.3772 107.7170 14.98316183 45001,6950.236,96.108,573.48,570.721,0.0
55676.0,STARLINK-5300,PAYLOAD,2023-11-28 11:07:56,14.98319828,0.0002625,70.0021,82.9797,263.9239,96.162,-0.0001319,-1.666e-05,0.0,0 STARLINK-5300,1 55676U 23021BA  23332.46384787 -.00001666  00000-0 -13190-3 0  9995,2 55676  70.0021  82.9797 0002625 263.9239  96.1620 14.98319828 44816,6950.224,96.108,573.914,570.265,0.0
55676.0,STARLINK-5300,PAYLOAD,2023-11-28 14:20:12,14.98322293,0.0002409,70.002,82.6426,254.3763,105.713,-0.00010184,-1.308e-05,0.0,0 STARLINK-5300,1 55676U 23021BA  23332.59736591 -.00001308  00000-0 -10184-3 0  9996,2 55676  70.0020  82.6426 0002409 254.3763 105.7130 14.98322293 45136,6950.217,96.107,573.756,570.407,0.0
55676.0,STARLINK-5300,PAYLOAD,2023-11-28 17:32:28,14.98324351,0.0002366,70.0021,82.3048,273.3659,86.723,-5.5908e-05,-7.6e-06,0.0,0 STARLINK-5300,1 55676U 23021BA  23332.73088673 -.00000760  00000-0 -55908-4 0  9998,2 55676  70.0021  82.3048 0002366 273.3659  86.7230 14.98324351 45159,6950.21,96.107,573.72,570.431,0.0
55676.0,STARLINK-5300,PAYLOAD,2023-11-29 11:09:55,14.98404154,0.0002538,70.0011,80.4525,251.9396,108.1487,-0.00096041,-0.00011555,0.0,0 STARLINK-5300,1 55676U 23021BA  23333.46522354 -.00011555  00000-0 -96041-3 0  9994,2 55676  70.0011  80.4525 0002538 251.9396 108.1487 14.98404154 44969,6949.964,96.102,573.592,570.065,0.0
55676.0,STARLINK-5300,PAYLOAD,2023-11-29 14:22:11,14.98333378,0.0002403,70.0021,80.1165,253.7238,106.3657,0.00036824,4.304e-05,0.0,0 STARLINK-5300,1 55676U 23021BA  23333.59874791  .00004304  00000-0  36824-3 0  9998,2 55676  70.0021  80.1165 0002403 253.7238 106.3657 14.98333378 45287,6950.182,96.107,573.718,570.377,0.0
55676.0,STARLINK-5300,PAYLOAD,2023-11-29 17:34:27,14.98343322,0.0002565,70.0016,79.7791,279.2374,80.8495,0.00045896,5.389e-05,0.0,0 STARLINK-5300,1 55676U 23021BA  23333.73226053  .00005389  00000-0  45896-3 0  9999,2 55676  70.0016  79.7791 0002565 279.2374  80.8495 14.98343322 45009,6950.152,96.106,573.799,570.234,0.0
55676.0,STARLINK-5300,PAYLOAD,2023-11-30 11:11:57,14.98328688,0.0003036,70.0011,77.93,268.6798,91.4013,5.4435e-05,5.57e-06,0.0,0 STARLINK-5300,1 55676U 23021BA  23334.46663823  .00000557  00000-0  54435-4 0  9992,2 55676  70.0011  77.9300 0003036 268.6798  91.4013 14.98328688 45110,6950.197,96.107,574.172,569.952,0.0
55676.0,STARLINK-5300,PAYLOAD,2023-12-01 14:26:14,14.98339198,0.0002672,70.0015,75.0677,258.3575,101.7284,-0.00014843,-1.864e-05,0.0,0 STARLINK-5300,1 55676U 23021BA  23335.60155291 -.00001864  00000-0 -14843-3 0  9996,2 55676  70.0015  75.0677 0002672 258.3575 101.7284 14.98339198 45285,6950.164,96.106,573.887,570.172,0.0
